{
  "schema": "int-telemetry-real-tle-snapshot/v1",
  "source": "celestrak",
  "group": "STARLINK",
  "format": "celestrak-gp-json",
  "source_url": "https://celestrak.org/NORAD/elements/gp.php?NAME=STARLINK&FORMAT=JSON",
  "downloaded_at": "2026-07-01T09:45:20.184Z",
  "generated_at": "2026-07-01T09:45:20.328Z",
  "fingerprint": "b8e2cd48",
  "shell_id": "starlink-real-53.2deg-545km",
  "catalog_count": 10658,
  "shell_count": 1056,
  "selected_count": 64,
  "mean_altitude_km": 544.89,
  "mean_inclination_deg": 53.1617,
  "mean_mean_motion_rev_per_day": 15.09493346,
  "layout": {
    "planes": 8,
    "satellites_per_plane": 8,
    "selection_strategy": "target-shell-raan-clusters-even-slot-sampling",
    "raan_cluster_threshold_deg": 1.5,
    "target_inclination_deg": 53,
    "target_altitude_km": 550,
    "selected_shell_key": "53.0deg-550km",
    "target_shell_distance": 21.03
  },
  "satellites": [
    {
      "satellite_id": "P07-S07",
      "norad_id": 51857,
      "satellite_name": "STARLINK-3571",
      "cospar_id": "2022-022F",
      "shell_id": "starlink-real-53.2deg-545km",
      "plane_id": 6,
      "slot_id": 6,
      "epoch": "2026-06-25T16:04:18.928128",
      "inclination": 53.1595,
      "raan": 254.19529999999997,
      "eccentricity": 0.0001781,
      "argument_of_perigee": 88.27339999999998,
      "mean_anomaly": 271.8462999999999,
      "mean_motion": 15.11732977,
      "bstar": 0.011884,
      "status": "active",
      "raw_omm": {
        "OBJECT_NAME": "STARLINK-3571",
        "OBJECT_ID": "2022-022F",
        "EPOCH": "2026-06-25T16:04:18.928128",
        "MEAN_MOTION": 15.11732977,
        "ECCENTRICITY": 0.0001781,
        "INCLINATION": 53.1595,
        "RA_OF_ASC_NODE": 254.1953,
        "ARG_OF_PERICENTER": 88.2734,
        "MEAN_ANOMALY": 271.8463,
        "EPHEMERIS_TYPE": 0,
        "CLASSIFICATION_TYPE": "U",
        "NORAD_CAT_ID": 51857,
        "ELEMENT_SET_NO": 999,
        "REV_AT_EPOCH": 23932,
        "BSTAR": 0.011884,
        "MEAN_MOTION_DOT": 0.00210699,
        "MEAN_MOTION_DDOT": 0
      },
      "source": "celestrak",
      "source_url": "https://celestrak.org/NORAD/elements/gp.php?NAME=STARLINK&FORMAT=JSON",
      "catalog_fingerprint": "b8e2cd48"
    },
    {
      "satellite_id": "P07-S08",
      "norad_id": 51852,
      "satellite_name": "STARLINK-3542",
      "cospar_id": "2022-022A",
      "shell_id": "starlink-real-53.2deg-545km",
      "plane_id": 6,
      "slot_id": 7,
      "epoch": "2026-06-26T04:00:01.998720",
      "inclination": 53.1602,
      "raan": 251.88560000000007,
      "eccentricity": 0.0001856,
      "argument_of_perigee": 67.7355,
      "mean_anomaly": 52.26729999999998,
      "mean_motion": 15.14662192,
      "bstar": 0.0035767,
      "status": "active",
      "raw_omm": {
        "OBJECT_NAME": "STARLINK-3542",
        "OBJECT_ID": "2022-022A",
        "EPOCH": "2026-06-26T04:00:01.998720",
        "MEAN_MOTION": 15.14662192,
        "ECCENTRICITY": 0.0001856,
        "INCLINATION": 53.1602,
        "RA_OF_ASC_NODE": 251.8856,
        "ARG_OF_PERICENTER": 67.7355,
        "MEAN_ANOMALY": 52.2673,
        "EPHEMERIS_TYPE": 0,
        "CLASSIFICATION_TYPE": "U",
        "NORAD_CAT_ID": 51852,
        "ELEMENT_SET_NO": 999,
        "REV_AT_EPOCH": 583,
        "BSTAR": 0.0035767,
        "MEAN_MOTION_DOT": 0.00067253,
        "MEAN_MOTION_DDOT": 0
      },
      "source": "celestrak",
      "source_url": "https://celestrak.org/NORAD/elements/gp.php?NAME=STARLINK&FORMAT=JSON",
      "catalog_fingerprint": "b8e2cd48"
    },
    {
      "satellite_id": "P08-S01",
      "norad_id": 53536,
      "satellite_name": "STARLINK-4053",
      "cospar_id": "2022-101K",
      "shell_id": "starlink-real-53.2deg-545km",
      "plane_id": 7,
      "slot_id": 0,
      "epoch": "2026-06-24T14:42:50.849856",
      "inclination": 53.1665,
      "raan": 303.8835,
      "eccentricity": 0.00025999,
      "argument_of_perigee": 274.62300000000005,
      "mean_anomaly": 85.44650000000001,
      "mean_motion": 15.10018315,
      "bstar": 0.0076799433,
      "status": "active",
      "raw_omm": {
        "OBJECT_NAME": "STARLINK-4053",
        "OBJECT_ID": "2022-101K",
        "EPOCH": "2026-06-24T14:42:50.849856",
        "MEAN_MOTION": 15.10018315,
        "ECCENTRICITY": 0.00025999,
        "INCLINATION": 53.1665,
        "RA_OF_ASC_NODE": 303.8835,
        "ARG_OF_PERICENTER": 274.623,
        "MEAN_ANOMALY": 85.4465,
        "EPHEMERIS_TYPE": 0,
        "CLASSIFICATION_TYPE": "U",
        "NORAD_CAT_ID": 53536,
        "ELEMENT_SET_NO": 999,
        "REV_AT_EPOCH": 21244,
        "BSTAR": 0.0076799433,
        "MEAN_MOTION_DOT": 0.00128261,
        "MEAN_MOTION_DDOT": 0
      },
      "source": "celestrak",
      "source_url": "https://celestrak.org/NORAD/elements/gp.php?NAME=STARLINK&FORMAT=JSON",
      "catalog_fingerprint": "b8e2cd48"
    },
    {
      "satellite_id": "P08-S02",
      "norad_id": 52452,
      "satellite_name": "STARLINK-3909",
      "cospar_id": "2022-049B",
      "shell_id": "starlink-real-53.2deg-545km",
      "plane_id": 7,
      "slot_id": 1,
      "epoch": "2026-06-25T18:15:07.982784",
      "inclination": 53.1596,
      "raan": 303.6957,
      "eccentricity": 0.0001056,
      "argument_of_perigee": 81.38800000000003,
      "mean_anomaly": 278.72309999999993,
      "mean_motion": 15.08844661,
      "bstar": -0.000074667,
      "status": "active",
      "raw_omm": {
        "OBJECT_NAME": "STARLINK-3909",
        "OBJECT_ID": "2022-049B",
        "EPOCH": "2026-06-25T18:15:07.982784",
        "MEAN_MOTION": 15.08844661,
        "ECCENTRICITY": 0.0001056,
        "INCLINATION": 53.1596,
        "RA_OF_ASC_NODE": 303.6957,
        "ARG_OF_PERICENTER": 81.388,
        "MEAN_ANOMALY": 278.7231,
        "EPHEMERIS_TYPE": 0,
        "CLASSIFICATION_TYPE": "U",
        "NORAD_CAT_ID": 52452,
        "ELEMENT_SET_NO": 999,
        "REV_AT_EPOCH": 22842,
        "BSTAR": -0.000074667,
        "MEAN_MOTION_DOT": -0.00001476,
        "MEAN_MOTION_DDOT": 0
      },
      "source": "celestrak",
      "source_url": "https://celestrak.org/NORAD/elements/gp.php?NAME=STARLINK&FORMAT=JSON",
      "catalog_fingerprint": "b8e2cd48"
    },
    {
      "satellite_id": "P08-S03",
      "norad_id": 52132,
      "satellite_name": "STARLINK-3718",
      "cospar_id": "2022-029AW",
      "shell_id": "starlink-real-53.2deg-545km",
      "plane_id": 7,
      "slot_id": 2,
      "epoch": "2026-06-25T17:16:51.439584",
      "inclination": 53.16,
      "raan": 304.0036,
      "eccentricity": 0.0001104,
      "argument_of_perigee": 84.06010000000003,
      "mean_anomaly": 276.0516,
      "mean_motion": 15.08833484,
      "bstar": 0.000040844,
      "status": "active",
      "raw_omm": {
        "OBJECT_NAME": "STARLINK-3718",
        "OBJECT_ID": "2022-029AW",
        "EPOCH": "2026-06-25T17:16:51.439584",
        "MEAN_MOTION": 15.08833484,
        "ECCENTRICITY": 0.0001104,
        "INCLINATION": 53.16,
        "RA_OF_ASC_NODE": 304.0036,
        "ARG_OF_PERICENTER": 84.0601,
        "MEAN_ANOMALY": 276.0516,
        "EPHEMERIS_TYPE": 0,
        "CLASSIFICATION_TYPE": "U",
        "NORAD_CAT_ID": 52132,
        "ELEMENT_SET_NO": 999,
        "REV_AT_EPOCH": 23724,
        "BSTAR": 0.000040844,
        "MEAN_MOTION_DOT": 0.00000362,
        "MEAN_MOTION_DDOT": 0
      },
      "source": "celestrak",
      "source_url": "https://celestrak.org/NORAD/elements/gp.php?NAME=STARLINK&FORMAT=JSON",
      "catalog_fingerprint": "b8e2cd48"
    },
    {
      "satellite_id": "P08-S04",
      "norad_id": 52138,
      "satellite_name": "STARLINK-3723",
      "cospar_id": "2022-029BC",
      "shell_id": "starlink-real-53.2deg-545km",
      "plane_id": 7,
      "slot_id": 3,
      "epoch": "2026-06-25T18:20:26.906784",
      "inclination": 53.1605,
      "raan": 303.8062,
      "eccentricity": 0.0001145,
      "argument_of_perigee": 90.74610000000001,
      "mean_anomaly": 269.36609999999996,
      "mean_motion": 15.08831847,
      "bstar": 0.000015618,
      "status": "active",
      "raw_omm": {
        "OBJECT_NAME": "STARLINK-3723",
        "OBJECT_ID": "2022-029BC",
        "EPOCH": "2026-06-25T18:20:26.906784",
        "MEAN_MOTION": 15.08831847,
        "ECCENTRICITY": 0.0001145,
        "INCLINATION": 53.1605,
        "RA_OF_ASC_NODE": 303.8062,
        "ARG_OF_PERICENTER": 90.7461,
        "MEAN_ANOMALY": 269.3661,
        "EPHEMERIS_TYPE": 0,
        "CLASSIFICATION_TYPE": "U",
        "NORAD_CAT_ID": 52138,
        "ELEMENT_SET_NO": 999,
        "REV_AT_EPOCH": 23725,
        "BSTAR": 0.000015618,
        "MEAN_MOTION_DOT": -3.9e-7,
        "MEAN_MOTION_DDOT": 0
      },
      "source": "celestrak",
      "source_url": "https://celestrak.org/NORAD/elements/gp.php?NAME=STARLINK&FORMAT=JSON",
      "catalog_fingerprint": "b8e2cd48"
    }
  ]
}