STARLINK-3542           
1 51852U 22022A   26177.16668980  .00067253  00000+0  35767-2 0  9998
2 51852  53.1602 251.8856 0001856  67.7355  52.2673 15.14662192  5836
STARLINK-3571           
1 51857U 22022F   26176.66966352  .00210699  00000+0  11884-1 0  9998
2 51857  53.1595 254.1953 0001781  88.2734 271.8463 15.11732977239327
STARLINK-3718           
1 52132U 22029AW  26176.72003981  .00000362  00000+0  40844-4 0  9994
2 52132  53.1600 304.0036 0001104  84.0601 276.0516 15.08833484237240
STARLINK-3723           
1 52138U 22029BC  26176.76420031 -.00000039  00000+0  15618-4 0  9996
2 52138  53.1605 303.8062 0001145  90.7461 269.3661 15.08831847237258
STARLINK-3909           
1 52452U 22049B   26176.76050906 -.00001476  00000+0 -74667-4 0  9993
2 52452  53.1596 303.6957 0001056  81.3880 278.7231 15.08844661228423
STARLINK-4053           
1 53536U 22101K   26175.61308854  .00128261  00000+0  76799-2 0  9993
2 53536  53.1665 303.8835 0002599 274.6230  85.4465 15.10018315212449
